$$SOE
2459580.500000000, A.D. 2022-Jan-01 00:00:00.0000, -3.648247148854518E+08, 9.073675988216482E+06, 3.482556886276911E+07,
2459587.500000000, A.D. 2022-Jan-08 00:00:00.0000, -3.660415391129698E+08, -1.663325824616885E+06, 3.533741043072063E+07,
2459594.500000000, A.D. 2022-Jan-15 00:00:00.0000, -3.669011289572806E+08, -1.239871556790773E+07, 3.581476126241325E+07,
2459601.500000000, A.D. 2022-Jan-22 00:00:00.0000, -3.674058532221541E+08, -2.312212345741929E+07, 3.625746852994509E+07,
2459608.500000000, A.D. 2022-Jan-29 00:00:00.0000, -3.675582658501935E+08, -3.382336605638035E+07, 3.666540435068671E+07,
2459615.500000000, A.D. 2022-Feb-05 00:00:00.0000, -3.673610994456624E+08, -4.449244180192970E+07, 3.703846490801203E+07,
2459622.500000000, A.D. 2022-Feb-12 00:00:00.0000, -3.668172573718349E+08, -5.511952752514600E+07, 3.737656935662757E+07,
2459629.500000000, A.D. 2022-Feb-19 00:00:00.0000, -3.659298057134188E+08, -6.569497362513454E+07, 3.767965882581562E+07,
2459636.500000000, A.D. 2022-Feb-26 00:00:00.0000, -3.647019663810896E+08, -7.620929864883241E+07, 3.794769557925669E+07,
2459643.500000000, A.D. 2022-Mar-05 00:00:00.0000, -3.631371111679813E+08, -8.665318391924983E+07, 3.818066226386034E+07,
2459650.500000000, A.D. 2022-Mar-12 00:00:00.0000, -3.612387565052326E+08, -9.701746830027300E+07, 3.837856121923197E+07,
2459657.500000000, A.D. 2022-Mar-19 00:00:00.0000, -3.590105588145155E+08, -1.072931430925685E+08, 3.854141384080021E+07,
2459664.500000000, A.D. 2022-Mar-26 00:00:00.0000, -3.564563104089251E+08, -1.174713470897845E+08, 3.866925999187791E+07,
2459671.500000000, A.D. 2022-Apr-02 00:00:00.0000, -3.535799358543392E+08, -1.275433618713109E+08, 3.876215745246196E+07,
2459678.500000000, A.D. 2022-Apr-09 00:00:00.0000, -3.503854885015434E+08, -1.375006073419073E+08, 3.882018137899405E+07,
2459685.500000000, A.D. 2022-Apr-16 00:00:00.0000, -3.468771468125342E+08, -1.473346368751599E+08, 3.884342379408204E+07,
2459692.500000000, A.D. 2022-Apr-23 00:00:00.0000, -3.430592117274703E+08, -1.570371309867561E+08, 3.883199330891409E+07,
2459699.500000000, A.D. 2022-Apr-30 00:00:00.0000, -3.389361069203952E+08, -1.665998917956368E+08, 3.878601506421786E+07,
2459706.500000000, A.D. 2022-May-07 00:00:00.0000, -3.345123788641499E+08, -1.760148402614337E+08, 3.870563044638839E+07,
2459713.500000000, A.D. 2022-May-14 00:00:00.0000, -3.297926953014083E+08, -1.852740131723173E+08, 3.859099669930504E+07,
2459720.500000000, A.D. 2022-May-21 00:00:00.0000, -3.247818441381618E+08, -1.943695591339547E+08, 3.844228667963052E+07,
2459727.500000000, A.D. 2022-May-28 00:00:00.0000, -3.194847332237322E+08, -2.032937345282012E+08, 3.825968872025396E+07,
2459734.500000000, A.D. 2022-Jun-04 00:00:00.0000, -3.139063907281550E+08, -2.120388997654752E+08, 3.804340655012481E+07,
2459741.500000000, A.D. 2022-Jun-11 00:00:00.0000, -3.080519659627377E+08, -2.205975158391568E+08, 3.779365925696062E+07,
2459748.500000000, A.D. 2022-Jun-18 00:00:00.0000, -3.019267305959395E+08, -2.289621411779253E+08, 3.751068128996996E+07,
2459755.500000000, A.D. 2022-Jun-25 00:00:00.0000, -2.955360802255279E+08, -2.371254288381957E+08, 3.719472249665357E+07,
2459762.500000000, A.D. 2022-Jul-02 00:00:00.0000, -2.888855361635475E+08, -2.450801241120481E+08, 3.684604817548362E+07,
2459769.500000000, A.D. 2022-Jul-09 00:00:00.0000, -2.819807470351045E+08, -2.528190623840764E+08, 3.646493912271790E+07,
2459776.500000000, A.D. 2022-Jul-16 00:00:00.0000, -2.748274902379194E+08, -2.603351661650692E+08, 3.605169176658003E+07,
2459783.500000000, A.D. 2022-Jul-23 00:00:00.0000, -2.674316754525439E+08, -2.676214412360851E+08, 3.560661859642562E+07,
2459790.500000000, A.D. 2022-Jul-30 00:00:00.0000, -2.597993501114402E+08, -2.746709752706856E+08, 3.513004860489075E+07,
2459797.500000000, A.D. 2022-Aug-06 00:00:00.0000, -2.519367032233910E+08, -2.814769383034219E+08, 3.462232746633446E+07,
2459804.500000000, A.D. 2022-Aug-13 00:00:00.0000, -2.438500683725525E+08, -2.880325823053584E+08, 3.408381775286669E+07,
2459811.500000000, A.D. 2022-Aug-20 00:00:00.0000, -2.355459274560597E+08, -2.943312403841417E+08, 3.351489929110710E+07,
2459818.500000000, A.D. 2022-Aug-27 00:00:00.0000, -2.270309150851324E+08, -3.003663263504093E+08, 3.291596959401006E+07,
2459825.500000000, A.D. 2022-Sep-03 00:00:00.0000, -2.183118233944472E+08, -3.061313347791849E+08, 3.228744433588395E+07,
2459832.500000000, A.D. 2022-Sep-10 00:00:00.0000, -2.093956071633567E+08, -3.116198415633865E+08, 3.162975786453176E+07,
2459839.500000000, A.D. 2022-Sep-17 00:00:00.0000, -2.002893892141343E+08, -3.168255049836080E+08, 3.094336374816391E+07,
2459846.500000000, A.D. 2022-Sep-24 00:00:00.0000, -1.910004660209559E+08, -3.217420673681585E+08, 3.022873534778644E+07,
2459853.500000000, A.D. 2022-Oct-01 00:00:00.0000, -1.815363132825828E+08, -3.263633573900391E+08, 2.948636639140517E+07,
2459860.500000000, A.D. 2022-Oct-08 00:00:00.0000, -1.719045910432568E+08, -3.306832925049683E+08, 2.871677155538316E+07,
2459867.500000000, A.D. 2022-Oct-15 00:00:00.0000, -1.621131492840986E+08, -3.346958803588929E+08, 2.792048723628196E+07,
2459874.500000000, A.D. 2022-Oct-22 00:00:00.0000, -1.521700361548235E+08, -3.383952208782566E+08, 2.709807257527778E+07,
2459881.500000000, A.D. 2022-Oct-29 00:00:00.0000, -1.420835063349307E+08, -3.417755116703131E+08, 2.625011029381129E+07,
2459888.500000000, A.D. 2022-Nov-05 00:00:00.0000, -1.318620274129205E+08, -3.448310540300295E+08, 2.537720737213896E+07,
2459895.500000000, A.D. 2022-Nov-12 00:00:00.0000, -1.215142862358339E+08, -3.475562583234227E+08, 2.447999585470185E+07,
2459902.500000000, A.D. 2022-Nov-19 00:00:00.0000, -1.110491959330735E+08, -3.499456497362702E+08, 2.355913376977061E+07,
2459909.500000000, A.D. 2022-Nov-26 00:00:00.0000, -1.004759033315346E+08, -3.519938748186958E+08, 2.261530610533226E+07,
2459916.500000000, A.D. 2022-Dec-03 00:00:00.0000, -8.980379656741689E+07, -3.536957088720635E+08, 2.164922582272944E+07,
2459923.500000000, A.D. 2022-Dec-10 00:00:00.0000, -7.904251281374823E+07, -3.550460642019694E+08, 2.066163490320119E+07,
2459930.500000000, A.D. 2022-Dec-17 00:00:00.0000, -6.820194606145298E+07, -3.560399993144572E+08, 1.965330542178594E+07,
2459937.500000000, A.D. 2022-Dec-24 00:00:00.0000, -5.729225480798059E+07, -3.566727291785585E+08, 1.862504063258913E+07,
2459944.500000000, A.D. 2022-Dec-31 00:00:00.0000, -4.632386925789410E+07, -3.569396365044408E+08, 1.757767604041758E+07,
2459951.500000000, A.D. 2023-Jan-07 00:00:00.0000, -3.530749786942886E+07, -3.568362831290731E+08, 1.651208052415191E+07,
2459958.500000000, A.D. 2023-Jan-14 00:00:00.0000, -2.425413516273546E+07, -3.563584210644698E+08, 1.542915772965011E+07,
2459965.500000000, A.D. 2023-Jan-21 00:00:00.0000, -1.317507137337560E+07, -3.555020064322532E+08, 1.432984752768502E+07,
2459972.500000000, A.D. 2023-Jan-28 00:00:00.0000, -2.081900212404438E+06, -3.542632165347185E+08, 1.321512717959362E+07,
2459979.500000000, A.D. 2023-Feb-04 00:00:00.0000, 9.013475136538759E+06, -3.526384670924846E+08, 1.208601247198536E+07,
2459986.500000000, A.D. 2023-Feb-11 00:00:00.0000, 2.009883607436669E+07, -3.506244298991929E+08, 1.094355896332367E+07,
2459993.500000000, A.D. 2023-Feb-18 00:00:00.0000, 3.116164273109352E+07, -3.482180517715065E+08, 9.788863273810551E+06,
2460000.500000000, A.D. 2023-Feb-25 00:00:00.0000, 4.218902856756012E+07, -3.454165750091017E+08, 8.623064373015746E+06,
2460007.500000000, A.D. 2023-Mar-04 00:00:00.0000, 5.316779565494420E+07, -3.422175593948848E+08, 7.447344847801179E+06,
2460014.500000000, A.D. 2023-Mar-11 00:00:00.0000, 6.408441079252878E+07, -3.386189057790701E+08, 6.262932136815444E+06,
2460021.500000000, A.D. 2023-Mar-18 00:00:00.0000, 7.492500265739720E+07, -3.346188813366243E+08, 5.071099710749224E+06,
2460028.500000000, A.D. 2023-Mar-25 00:00:00.0000, 8.567536034980793E+07, -3.302161465809420E+08, 3.873168162251934E+06,
2460035.500000000, A.D. 2023-Apr-01 00:00:00.0000, 9.632093393225363E+07, -3.254097837682224E+08, 2.670506183573186E+06,
2460042.500000000, A.D. 2023-Apr-08 00:00:00.0000, 1.068468365341790E+08, -3.201993254833957E+08, 1.464531571256325E+06,
2460049.500000000, A.D. 2023-Apr-15 00:00:00.0000, 1.172378458877571E+08, -3.145847845133678E+08, 2.567123622321784E+05,
2460056.500000000, A.D. 2023-Apr-22 00:00:00.0000, 1.274784073235464E+08, -3.085666880410716E+08, -9.514323360542208E+05,
2460063.500000000, A.D. 2023-Apr-29 00:00:00.0000, 1.375526411985291E+08, -3.021461138732578E+08, -2.158331912249520E+06,
2460070.500000000, A.D. 2023-May-06 00:00:00.0000, 1.474443532485130E+08, -2.953247268675803E+08, -3.362363933472767E+06,
2460077.500000000, A.D. 2023-May-13 00:00:00.0000, 1.571370471538134E+08, -2.881048163730774E+08, -4.561853955409646E+06,
2460084.500000000, A.D. 2023-May-20 00:00:00.0000, 1.666139398313962E+08, -2.804893350658573E+08, -5.755075552740440E+06,
2460091.500000000, A.D. 2023-May-27 00:00:00.0000, 1.758579799376493E+08, -2.724819390673764E+08, -6.940250623443782E+06,
2460098.500000000, A.D. 2023-Jun-03 00:00:00.0000, 1.848518699383920E+08, -2.640870291403177E+08, -8.115550005833685E+06,
2460105.500000000, A.D. 2023-Jun-10 00:00:00.0000, 1.935780920734811E+08, -2.553097927539675E+08, -9.279094449614704E+06,
2460112.500000000, A.D. 2023-Jun-17 00:00:00.0000, 2.020189386113081E+08, -2.461562468089622E+08, -1.042895599399856E+07,
2460119.500000000, A.D. 2023-Jun-24 00:00:00.0000, 2.101565470207254E+08, -2.366332806467195E+08, -1.156315981888451E+07,
2460126.500000000, A.D. 2023-Jul-01 00:00:00.0000, 2.179729406145991E+08, -2.267486981484104E+08, -1.267968656657173E+07,
2460133.500000000, A.D. 2023-Jul-08 00:00:00.0000, 2.254500732731807E+08, -2.165112576796257E+08, -1.377647495598851E+07,
2460140.500000000, A.D. 2023-Jul-15 00:00:00.0000, 2.325698772248452E+08, -2.059307122235778E+08, -1.485142484667778E+07,
$$EOE